{
  "type": "FeatureCollection",
  "features": [
    {
      "type": "Feature",
      "properties": {
        "norad_id": 41866,
        "name": "GOES 16",
        "group": "weather",
        "lat": -0.0690140784095854,
        "lon": -18.773362602408298,
        "alt_km": 35782.59750044288,
        "timestamp": "2025-12-22T23:36:20.342149+00:00",
        "meta_object_name": "GOES 16",
        "meta_object_id": "2016-071A",
        "meta_epoch": "2025-12-22T11:50:45.502080",
        "meta_mean_motion": 1.00271941,
        "meta_eccentricity": 0.00030736,
        "meta_inclination": 0.0719,
        "meta_ra_of_asc_node": 103.2078,
        "meta_arg_of_pericenter": 163.3048,
        "meta_mean_anomaly": 257.8083,
        "meta_ephemeris_type": 0,
        "meta_classification_type": "U",
        "meta_norad_cat_id": 41866,
        "meta_element_set_no": 999,
        "meta_rev_at_epoch": 3333,
        "meta_bstar": 0,
        "meta_mean_motion_dot": -6.9e-07,
        "meta_mean_motion_ddot": 0,
        "tle_line1": "1 41866U 16071A   25356.49358220 -.00000069  00000+0  00000+0 0  9998",
        "tle_line2": "2 41866   0.0719 103.2078 0003073 163.3048 257.8083  1.00271941 33333"
      },
      "geometry": {
        "type": "Point",
        "coordinates": [
          -18.773362602408298,
          -0.0690140784095854
        ]
      }
    },
    {
      "type": "Feature",
      "properties": {
        "norad_id": 41882,
        "name": "FENGYUN 4A",
        "group": "weather",
        "lat": 1.4844319489384439,
        "lon": -150.4644647363365,
        "alt_km": 35769.60579731707,
        "timestamp": "2025-12-22T23:36:20.342162+00:00",
        "meta_object_name": "FENGYUN 4A",
        "meta_object_id": "2016-077A",
        "meta_epoch": "2025-12-19T13:51:06.687072",
        "meta_mean_motion": 1.00266581,
        "meta_eccentricity": 0.0004506,
        "meta_inclination": 1.866,
        "meta_ra_of_asc_node": 82.3247,
        "meta_arg_of_pericenter": 142.8816,
        "meta_mean_anomaly": 194.7423,
        "meta_ephemeris_type": 0,
        "meta_classification_type": "U",
        "meta_norad_cat_id": 41882,
        "meta_element_set_no": 999,
        "meta_rev_at_epoch": 3312,
        "meta_bstar": 0,
        "meta_mean_motion_dot": -3.34e-06,
        "meta_mean_motion_ddot": 0,
        "tle_line1": "1 41882U 16077A   25353.57716073 -.00000334  00000+0  00000+0 0  9997",
        "tle_line2": "2 41882   1.8660  82.3247 0004506 142.8816 194.7423  1.00266581 33125"
      },
      "geometry": {
        "type": "Point",
        "coordinates": [
          -150.4644647363365,
          1.4844319489384439
        ]
      }
    },
    {
      "type": "Feature",
      "properties": {
        "norad_id": 41884,
        "name": "CYGFM05",
        "group": "weather",
        "lat": -30.123320297055113,
        "lon": -75.94639702932912,
        "alt_km": 417.7962640991327,
        "timestamp": "2025-12-22T23:36:20.342174+00:00",
        "meta_object_name": "CYGFM05",
        "meta_object_id": "2016-078A",
        "meta_epoch": "2025-12-22T08:23:26.578752",
        "meta_mean_motion": 15.47975352,
        "meta_eccentricity": 0.00108079,
        "meta_inclination": 34.9607,
        "meta_ra_of_asc_node": 344.3416,
        "meta_arg_of_pericenter": 266.9174,
        "meta_mean_anomaly": 93.0311,
        "meta_ephemeris_type": 0,
        "meta_classification_type": "U",
        "meta_norad_cat_id": 41884,
        "meta_element_set_no": 999,
        "meta_rev_at_epoch": 50125,
        "meta_bstar": 0.00040236173,
        "meta_mean_motion_dot": 0.0002172,
        "meta_mean_motion_ddot": 0,
        "tle_line1": "1 41884U 16078A   25356.34961318  .00021720  00000+0  40236-3 0  9992",
        "tle_line2": "2 41884  34.9607 344.3416 0010807 266.9174  93.0311 15.47975352501250"
      },
      "geometry": {
        "type": "Point",
        "coordinates": [
          -75.94639702932912,
          -30.123320297055113
        ]
      }
    },
    {
      "type": "Feature",
      "properties": {
        "norad_id": 41885,
        "name": "CYGFM04",
        "group": "weather",
        "lat": -34.319456780659245,
        "lon": -123.2725657656156,
        "alt_km": 410.3108925518827,
        "timestamp": "2025-12-22T23:36:20.342184+00:00",
        "meta_object_name": "CYGFM04",
        "meta_object_id": "2016-078B",
        "meta_epoch": "2025-12-22T06:57:13.787424",
        "meta_mean_motion": 15.50744918,
        "meta_eccentricity": 0.00095893,
        "meta_inclination": 34.9356,
        "meta_ra_of_asc_node": 319.2314,
        "meta_arg_of_pericenter": 290.644,
        "meta_mean_anomaly": 69.3254,
        "meta_ephemeris_type": 0,
        "meta_classification_type": "U",
        "meta_norad_cat_id": 41885,
        "meta_element_set_no": 999,
        "meta_rev_at_epoch": 50142,
        "meta_bstar": 0.00041684419,
        "meta_mean_motion_dot": 0.00024821,
        "meta_mean_motion_ddot": 0,
        "tle_line1": "1 41885U 16078B   25356.28974291  .00024821  00000+0  41684-3 0  9993",
        "tle_line2": "2 41885  34.9356 319.2314 0009589 290.6440  69.3254 15.50744918501422"
      },
      "geometry": {
        "type": "Point",
        "coordinates": [
          -123.2725657656156,
          -34.319456780659245
        ]
      }
    },
    {
      "type": "Feature",
      "properties": {
        "norad_id": 41886,
        "name": "CYGFM02",
        "group": "weather",
        "lat": -8.720134700512647,
        "lon": -59.82076999130904,
        "alt_km": 405.1006418622237,
        "timestamp": "2025-12-22T23:36:20.342195+00:00",
        "meta_object_name": "CYGFM02",
        "meta_object_id": "2016-078C",
        "meta_epoch": "2025-12-22T14:24:35.297856",
        "meta_mean_motion": 15.52169465,
        "meta_eccentricity": 0.00111762,
        "meta_inclination": 34.9445,
        "meta_ra_of_asc_node": 315.3888,
        "meta_arg_of_pericenter": 294.1654,
        "meta_mean_anomaly": 65.79,
        "meta_ephemeris_type": 0,
        "meta_classification_type": "U",
        "meta_norad_cat_id": 41886,
        "meta_element_set_no": 999,
        "meta_rev_at_epoch": 50160,
        "meta_bstar": 0.00041141658,
        "meta_mean_motion_dot": 0.00025806,
        "meta_mean_motion_ddot": 0,
        "tle_line1": "1 41886U 16078C   25356.60040854  .00025806  00000+0  41142-3 0  9992",
        "tle_line2": "2 41886  34.9445 315.3888 0011176 294.1654  65.7900 15.52169465501604"
      },
      "geometry": {
        "type": "Point",
        "coordinates": [
          -59.82076999130904,
          -8.720134700512647
        ]
      }
    },
    {
      "type": "Feature",
      "properties": {
        "norad_id": 41887,
        "name": "CYGFM01",
        "group": "weather",
        "lat": 2.722528324310414,
        "lon": -13.619536098779234,
        "alt_km": 420.5462874101495,
        "timestamp": "2025-12-22T23:36:20.342206+00:00",
        "meta_object_name": "CYGFM01",
        "meta_object_id": "2016-078D",
        "meta_epoch": "2025-12-22T09:39:37.601856",
        "meta_mean_motion": 15.4856694,
        "meta_eccentricity": 0.00105029,
        "meta_inclination": 34.9439,
        "meta_ra_of_asc_node": 346.277,
        "meta_arg_of_pericenter": 259.7922,
        "meta_mean_anomaly": 100.1615,
        "meta_ephemeris_type": 0,
        "meta_classification_type": "U",
        "meta_norad_cat_id": 41887,
        "meta_element_set_no": 999,
        "meta_rev_at_epoch": 50120,
        "meta_bstar": 0.00040213854,
        "meta_mean_motion_dot": 0.00022163,
        "meta_mean_motion_ddot": 0,
        "tle_line1": "1 41887U 16078D   25356.40251854  .00022163  00000+0  40214-3 0  9997",
        "tle_line2": "2 41887  34.9439 346.2770 0010502 259.7922 100.1615 15.48566940501205"
      },
      "geometry": {
        "type": "Point",
        "coordinates": [
          -13.619536098779234,
          2.722528324310414
        ]
      }
    },
    {
      "type": "Feature",
      "properties": {
        "norad_id": 41888,
        "name": "CYGFM08",
        "group": "weather",
        "lat": 34.51499874939638,
        "lon": 65.36835179922345,
        "alt_km": 418.8062051009056,
        "timestamp": "2025-12-22T23:36:20.342217+00:00",
        "meta_object_name": "CYGFM08",
        "meta_object_id": "2016-078E",
        "meta_epoch": "2025-12-22T07:43:26.360832",
        "meta_mean_motion": 15.49794125,
        "meta_eccentricity": 0.00118989,
        "meta_inclination": 34.9467,
        "meta_ra_of_asc_node": 329.6834,
        "meta_arg_of_pericenter": 281.7617,
        "meta_mean_anomaly": 78.177,
        "meta_ephemeris_type": 0,
        "meta_classification_type": "U",
        "meta_norad_cat_id": 41888,
        "meta_element_set_no": 999,
        "meta_rev_at_epoch": 50142,
        "meta_bstar": 0.00041801893,
        "meta_mean_motion_dot": 0.00024083,
        "meta_mean_motion_ddot": 0,
        "tle_line1": "1 41888U 16078E   25356.32183288  .00024083  00000+0  41802-3 0  9991",
        "tle_line2": "2 41888  34.9467 329.6834 0011898 281.7617  78.1770 15.49794125501427"
      },
      "geometry": {
        "type": "Point",
        "coordinates": [
          65.36835179922345,
          34.51499874939638
        ]
      }
    }
  ]
}